#dP2024  1 18  0  0  0.00000000      97 __u+U IGS20 FIT  IAC
## 2297 345600.00000000   900.00000000 60327 0.0000000000000
+  119   C06C07C08C09C10C11C12C13C14C16C19C20C21C22C23C24C25
+        C26C27C28C29C30C32C33C34C35C36C37C38C39C40C41C42C43
+        C44C45C46E02E03E04E05E07E08E09E10E11E12E13E14E15E18
+        E19E21E24E25E26E27E30E31E33E34E36G01G02G03G04G05G06
+        G07G08G09G10G11G12G13G14G15G16G17G18G19G20G21G22G23
+        G24G25G26G28G29G30G31G32J02J03J04R01R02R03R04R05R07
+        R08R09R11R12R13R14R15R16R17R18R19R20R21R22R24R25R26
++         7  7  7  7  7  7  7  7  7  7  6  6  6  6  5  6  5
++         6  6  5  6  6  5  6  6  6  6  5  6  6  6  6  6  6
++         6  6  6  4  4  4  4  4  4  4  5  4  4  4  4  4  4
++         4  4  4  4  4  4  4  4  4  4  5  3  3  3  3  4  3
++         4  4  3  3  3  3  3  3  4  4  3  3  3  4  4  3  3
++         3  3  3  3  4  3  3  3  9  9  9  8  6  6  6  6  6
++         6  7  7  7  8  6  6  6  6  6  7  8  7  7  6  8  8
%c M  cc GPS ccc cccc cccc cccc cccc ccccc ccccc ccccc ccccc
%c cc cc ccc ccc cccc cccc cccc cccc ccccc ccccc ccccc ccccc
%f  1.2500000  1.025000000  0.00000000000  0.000000000000000
%f  0.0000000  0.000000000  0.00000000000  0.000000000000000
%i    0    0    0    0      0      0      0      0         0
%i    0    0    0    0      0      0      0      0         0
/* INFORMATION & ANALYSIS CENTER (IAC)            FINAL DATA
/* S/V CLOCKS ARE ALIGNED TO GNSS TIME                      
/* G:C1WC2W R:C1PC2P E:C1XC5X C:C2IC6I J:C1CC2S             
/* PCV:IGS20_2290 OL/AL:FES2004  NONE     YN ORB:CoN CLK:CoN
*  2024 01 18  5 30  0.00000000
PC06 -18973.617434  29463.720067  23268.586499     54.813746
PC07  -5551.580500  40179.267351  11958.225621   -655.600701
PC08  -1450.105902  21888.401401 -35969.009257    104.639968
PC09  -8757.081167  28258.921836  30232.637520   -367.858403
PC10   -557.958654  41962.623109   6767.432344    121.577076
PC11    660.603355 -19511.134092  20012.109167    363.861082
PC12  16485.098512 -21937.043516   5128.161940    793.322139
PC13   6073.932269  25421.037730 -32850.644484    408.603489
PC14  -7722.758147 -26771.755187    887.742795     -8.753840
PC16 -19401.248678  29277.654872  23328.107558   -287.821161
PC19  13119.249477  23186.723575   8366.188043   -936.578122
PC20   2328.408554  26539.999619  -8337.780741    -76.068691
PC21  10931.775133 -13990.922957  21539.118051   -964.038694
PC22  16983.889630   6350.345696  21217.150606   -143.523225
PC23 -27301.877018  -5775.444327    525.599001   -789.141488
PC24   2708.997467 -16155.031411 -22616.656209    800.170432
PC25 -18200.302421 -14793.506450 -15153.446516    304.508044
PC26  20582.627458  -8297.214291 -16920.082607   -236.306770
PC27 -20666.849869  18410.240496   3493.444768    258.337503
PC28 -21272.667140   4863.422479  17401.715956    196.042306
PC29   8840.549284  13922.077950 -22512.553674    229.672487
PC30  -8666.584513  23373.723675 -12522.309156    -16.140564
PC32 -10855.135301  14013.547454 -21539.318403   -555.123084
PC33 -13207.174194 -23155.026558  -8229.253747   -943.596183
PC34   7392.784245 -23170.372910  13696.079284    349.602064
PC35  21130.096171  -5607.218576 -17376.129011    454.696045
PC36  17263.485869  15405.230643  15604.658803    -48.472151
PC37 -21219.485634   7458.257979  16537.301139   -932.164294
PC38 -10758.274819  19980.381529 -35478.025894    131.168921
PC39 -24734.491480  29755.002654  16513.377796     -6.692740
PC40 -10919.111413  37745.348757  15637.893543    -52.561081
PC41 -17070.927644  -7156.266732 -20826.170527   -880.691723
PC42  -1173.274067 -26087.677589   9849.266363   -464.408162
PC43  -8097.377545 -14750.233067  22258.750610     56.852138
PC44  20060.208643 -19075.030842  -3686.595998    357.184913
PC45  27310.885759   5594.429863   -885.450760    -63.889130
PC46  -1643.692803  16222.093711  22630.844986   -116.534564
PE02  19974.672140   -845.400528 -21831.420684     95.968633
PE03  18035.117759 -12347.552588  19953.212382    -87.745642
PE04 -10830.758543  27223.348225  -4196.933627   -306.236360
PE05  14653.718492   9518.361028  23893.332142   4711.398423
PE07  -2372.166659 -26201.114912 -13558.641196    -98.985648
PE08  11168.074462 -26976.450697   4849.378977   -209.740508
PE09   2220.273397  26246.901882  13512.401792   -303.547456
PE10  -5718.637937  17027.737320 -23525.802074   -595.001607
PE11   6551.302594  14863.138086 -24748.204575   3278.800763
PE12 -15754.232184  16481.814877 -18860.868785   -867.573130
PE13  -5722.958856 -15028.699571  24860.956465    -19.934641
PE14  19310.519184   -759.809303 -21396.981907     13.709889
PE15  16289.457424 -16353.900557  18548.800993    -80.794911
PE18 -17824.482752  19332.266916  12226.206604    223.628348
PE19 -18125.926038   9865.264772 -21212.088941   -791.026107
PE21 -23417.984512 -16023.476220   8434.386453   -574.447362
PE24  12886.805260  24350.635092  10767.090638   -548.242683
PE25  23346.467642  16288.979767  -8093.190722     -0.361989
PE26 -24478.574500  -4640.025301  15992.960879    342.535121
PE27 -13320.106533 -24298.369982 -10435.590510   -252.144135
PE30   4847.833968 -18018.823264 -22998.959400   -833.571150
PE31  -4523.900707  18147.667102  22940.165317    -14.011102
PE33 -28562.919150   7722.085658   -879.194841      6.133878
PE34  28422.275363  -8128.839913   1463.780300    -89.609449
PE36  24054.404858   4930.438921 -16528.599169   -173.377516
PG01   5236.024907  13860.913231 -22413.267965    166.427240
PG02  -2820.930360  15955.503990 -20498.942217   -499.213918
PG03   8655.350180  21476.948628 -13259.630614    133.737547
PG04    -30.436830  24341.496147  10474.720936    268.936259
PG05   1817.181422 -17069.837511  20067.737675   -158.384468
PG06  25891.866409  -6155.030612   -337.871312    440.750645
PG07  19074.565593   7942.459915  17430.466333    -40.061549
PG08  -4842.132622  25810.361065  -1955.810717   -162.645846
PG09   9603.493558  16009.947726  18786.112600     62.464971
PG10 -20892.444857  -7137.559496 -14799.576492    -69.768417
PG11  21237.709670 -11904.783777  10582.369976   -543.960120
PG12  -6830.780164 -22171.726193 -13280.565205   -469.003132
PG13  13558.115871 -22009.848129   5366.642360    616.947136
PG14  21430.717742  10353.339826 -11955.777756    301.679477
PG15   1582.413258 -26341.459743  -2189.926114    118.383264
PG16  -9539.143843  11845.082212  21408.733265   -381.841849
PG17  14854.099033   2013.874968 -21508.348065    719.602657
PG18 -19898.412949  -6672.424823  16402.630338   -534.769812
PG19  16958.700867  -7226.788975 -19174.221319    428.102334
PG20  13946.165248  -8428.780944  21003.655001    390.971390
PG21  -7290.937871  16454.374343 -18691.068124    138.036340
PG22  19068.854501   4049.303533 -17473.566037     46.345928
PG23 -20792.306244 -16194.733935  -4019.146311    137.593978
PG24   3546.638462 -17204.397036 -20223.236419   -415.897477
PG25 -16661.905494 -20527.041820  -4118.814318    485.643718
PG26 -17336.095118   4228.213035  19630.512568    199.267295
PG28 -25830.617240   5125.305393  -3454.033626   -102.156357
PG29  -7030.560077 -17620.552568  18498.749552   -608.535438
PG30  25204.793378    339.442777   8912.490568   -444.066340
PG31 -24273.413951   9749.612078   5509.112289   -227.373270
PG32 -15766.061945   2147.879659 -21037.428682   -605.880216
PJ02 -26713.280936  21624.005204  29544.544072     -1.251741
PJ03 -34753.444796  22093.055284  -4645.670429     -0.169709
PJ04 -17668.623828  30290.221128 -18389.999229     77.234959
PR01  10370.842307  16455.132045  16510.783391     74.851520
PR02  10679.414121  -1651.635854  23152.410478    -22.416224
PR03   5438.376276 -18933.371238  16291.352534     92.882960
PR04  -2468.680098 -25388.840932    734.779258    219.703244
PR05  -9078.046344 -18325.958473 -15251.529731    125.505766
PR07  -5048.555231  19504.709263 -15567.641653     73.810034
PR08   2829.180195  25327.630243   -353.824083    -74.081872
PR09 -22758.824624  -3022.132377  11044.389537    164.977280
PR11   5698.066956  13184.167609  21088.695278     37.246820
PR12  21271.063341  12400.134951   6650.409630     35.724062
PR13  23384.091962   4853.374436  -8973.182986    -43.416318
PR14  11010.286599  -6993.165253 -21919.723126     25.954101
PR15  -7032.456482 -13614.796062 -20380.336019     82.997914
PR16 -21215.042884 -12315.655384  -6935.871608     22.537153
PR17  18202.107543 -16836.937496   5926.328787     53.364312
PR18   6281.718978 -15350.060598  19421.841419    122.698612
PR19  -7469.914422  -7441.505531  23232.494109   -262.480800
PR20 -20961.877040   7482.557594  12433.955107   -106.926946
PR21 -18185.838581  16757.927468  -6292.821192    -69.818555
PR22  -5530.739827  15065.575578 -19790.408127    103.690903
PR24  20941.646618  -8553.417048 -11754.582763    -40.334223
PR25 -18838.791119  16149.326351  -5942.542036     44.501598
PR26   2560.560706  25356.649941  -1277.850252   -202.942725
EOF
